CCSDS_OMM_VERS = 2.0
CREATION_DATE  = 
ORIGINATOR     = 

OBJECT_NAME    = STARLINK-36332
OBJECT_ID      = 2026-034N
CENTER_NAME    = EARTH
REF_FRAME      = TEME
TIME_SYSTEM    = UTC
MEAN_ELEMENT_THEORY = SGP/SGP4

EPOCH          = 2026-03-20T14:18:47.022912
MEAN_MOTION    = 15.80952237
ECCENTRICITY   = .00017433
INCLINATION    = 53.1584
RA_OF_ASC_NODE = 156.5906
ARG_OF_PERICENTER = 87.3882
MEAN_ANOMALY   = 272.7341

EPHEMERIS_TYPE = 0
CLASSIFICATION_TYPE = U
NORAD_CAT_ID   = 67862
ELEMENT_SET_NO = 999
REV_AT_EPOCH   = 566
BSTAR          = .14433979E-2
MEAN_MOTION_DOT = .295211E-2
MEAN_MOTION_DDOT = 0

CCSDS_OMM_VERS = 2.0
CREATION_DATE  = 
ORIGINATOR     = 

OBJECT_NAME    = STARLINK-36835
OBJECT_ID      = 2026-034P
CENTER_NAME    = EARTH
REF_FRAME      = TEME
TIME_SYSTEM    = UTC
MEAN_ELEMENT_THEORY = SGP/SGP4

EPOCH          = 2026-03-20T09:44:35.653344
MEAN_MOTION    = 15.81065455
ECCENTRICITY   = .00012442
INCLINATION    = 53.1589
RA_OF_ASC_NODE = 157.5351
ARG_OF_PERICENTER = 147.7280
MEAN_ANOMALY   = 212.3820

EPHEMERIS_TYPE = 0
CLASSIFICATION_TYPE = U
NORAD_CAT_ID   = 67863
ELEMENT_SET_NO = 999
REV_AT_EPOCH   = 563
BSTAR          = .13821349E-2
MEAN_MOTION_DOT = .28375E-2
MEAN_MOTION_DDOT = 0

CCSDS_OMM_VERS = 2.0
CREATION_DATE  = 
ORIGINATOR     = 

OBJECT_NAME    = STARLINK-36831
OBJECT_ID      = 2026-034Q
CENTER_NAME    = EARTH
REF_FRAME      = TEME
TIME_SYSTEM    = UTC
MEAN_ELEMENT_THEORY = SGP/SGP4

EPOCH          = 2026-03-20T09:43:30.671040
MEAN_MOTION    = 15.81077630
ECCENTRICITY   = .00013712
INCLINATION    = 53.1584
RA_OF_ASC_NODE = 157.5306
ARG_OF_PERICENTER = 164.7882
MEAN_ANOMALY   = 195.3182

EPHEMERIS_TYPE = 0
CLASSIFICATION_TYPE = U
NORAD_CAT_ID   = 67864
ELEMENT_SET_NO = 999
REV_AT_EPOCH   = 563
BSTAR          = .14585135E-2
MEAN_MOTION_DOT = .300216E-2
MEAN_MOTION_DDOT = 0

CCSDS_OMM_VERS = 2.0
CREATION_DATE  = 
ORIGINATOR     = 

OBJECT_NAME    = STARLINK-36738
OBJECT_ID      = 2026-034R
CENTER_NAME    = EARTH
REF_FRAME      = TEME
TIME_SYSTEM    = UTC
MEAN_ELEMENT_THEORY = SGP/SGP4

EPOCH          = 2026-03-20T09:42:26.002368
MEAN_MOTION    = 15.81042745
ECCENTRICITY   = .00009554
INCLINATION    = 53.1593
RA_OF_ASC_NODE = 157.5251
ARG_OF_PERICENTER = 138.7197
MEAN_ANOMALY   = 221.3898

EPHEMERIS_TYPE = 0
CLASSIFICATION_TYPE = U
NORAD_CAT_ID   = 67865
ELEMENT_SET_NO = 999
REV_AT_EPOCH   = 563
BSTAR          = .122007E-2
MEAN_MOTION_DOT = .249122E-2
MEAN_MOTION_DDOT = 0

CCSDS_OMM_VERS = 2.0
CREATION_DATE  = 
ORIGINATOR     = 

OBJECT_NAME    = STARLINK-36780
OBJECT_ID      = 2026-034S
CENTER_NAME    = EARTH
REF_FRAME      = TEME
TIME_SYSTEM    = UTC
MEAN_ELEMENT_THEORY = SGP/SGP4

EPOCH          = 2026-03-20T09:41:21.259392
MEAN_MOTION    = 15.81074848
ECCENTRICITY   = .00010845
INCLINATION    = 53.1594
RA_OF_ASC_NODE = 157.5203
ARG_OF_PERICENTER = 157.3763
MEAN_ANOMALY   = 202.7307

EPHEMERIS_TYPE = 0
CLASSIFICATION_TYPE = U
NORAD_CAT_ID   = 67866
ELEMENT_SET_NO = 999
REV_AT_EPOCH   = 563
BSTAR          = .14656035E-2
MEAN_MOTION_DOT = .301695E-2
MEAN_MOTION_DDOT = 0

CCSDS_OMM_VERS = 2.0
CREATION_DATE  = 
ORIGINATOR     = 

OBJECT_NAME    = STARLINK-36761
OBJECT_ID      = 2026-034T
CENTER_NAME    = EARTH
REF_FRAME      = TEME
TIME_SYSTEM    = UTC
MEAN_ELEMENT_THEORY = SGP/SGP4

EPOCH          = 2026-03-20T14:13:23.060928
MEAN_MOTION    = 15.80913483
ECCENTRICITY   = .00015897
INCLINATION    = 53.1594
RA_OF_ASC_NODE = 156.5644
ARG_OF_PERICENTER = 71.6832
MEAN_ANOMALY   = 288.4364

EPHEMERIS_TYPE = 0
CLASSIFICATION_TYPE = U
NORAD_CAT_ID   = 67867
ELEMENT_SET_NO = 999
REV_AT_EPOCH   = 566
BSTAR          = .15581503E-2
MEAN_MOTION_DOT = .319058E-2
MEAN_MOTION_DDOT = 0

CCSDS_OMM_VERS = 2.0
CREATION_DATE  = 
ORIGINATOR     = 

OBJECT_NAME    = STARLINK-36762
OBJECT_ID      = 2026-034U
CENTER_NAME    = EARTH
REF_FRAME      = TEME
TIME_SYSTEM    = UTC
MEAN_ELEMENT_THEORY = SGP/SGP4

EPOCH          = 2026-03-20T09:39:11.731968
MEAN_MOTION    = 15.80900224
ECCENTRICITY   = .00009624
INCLINATION    = 53.1588
RA_OF_ASC_NODE = 157.5096
ARG_OF_PERICENTER = 45.3818
MEAN_ANOMALY   = 314.7283

EPHEMERIS_TYPE = 0
CLASSIFICATION_TYPE = U
NORAD_CAT_ID   = 67868
ELEMENT_SET_NO = 999
REV_AT_EPOCH   = 563
BSTAR          = .17279968E-2
MEAN_MOTION_DOT = .355211E-2
MEAN_MOTION_DDOT = 0

CCSDS_OMM_VERS = 2.0
CREATION_DATE  = 
ORIGINATOR     = 

OBJECT_NAME    = STARLINK-36779
OBJECT_ID      = 2026-034V
CENTER_NAME    = EARTH
REF_FRAME      = TEME
TIME_SYSTEM    = UTC
MEAN_ELEMENT_THEORY = SGP/SGP4

EPOCH          = 2026-03-20T14:11:13.263936
MEAN_MOTION    = 15.80971611
ECCENTRICITY   = .00015719
INCLINATION    = 53.1583
RA_OF_ASC_NODE = 156.5540
ARG_OF_PERICENTER = 77.3793
MEAN_ANOMALY   = 282.7405

EPHEMERIS_TYPE = 0
CLASSIFICATION_TYPE = U
NORAD_CAT_ID   = 67869
ELEMENT_SET_NO = 999
REV_AT_EPOCH   = 566
BSTAR          = .15992032E-2
MEAN_MOTION_DOT = .328734E-2
MEAN_MOTION_DDOT = 0

CCSDS_OMM_VERS = 2.0
CREATION_DATE  = 
ORIGINATOR     = 

OBJECT_NAME    = STARLINK-36770
OBJECT_ID      = 2026-034W
CENTER_NAME    = EARTH
REF_FRAME      = TEME
TIME_SYSTEM    = UTC
MEAN_ELEMENT_THEORY = SGP/SGP4

EPOCH          = 2026-03-20T14:09:03.957696
MEAN_MOTION    = 15.80921220
ECCENTRICITY   = .00022409
INCLINATION    = 53.1589
RA_OF_ASC_NODE = 156.5450
ARG_OF_PERICENTER = 24.9473
MEAN_ANOMALY   = 335.1657

EPHEMERIS_TYPE = 0
CLASSIFICATION_TYPE = U
NORAD_CAT_ID   = 67870
ELEMENT_SET_NO = 999
REV_AT_EPOCH   = 566
BSTAR          = .14290353E-2
MEAN_MOTION_DOT = .291734E-2
MEAN_MOTION_DDOT = 0

CCSDS_OMM_VERS = 2.0
CREATION_DATE  = 
ORIGINATOR     = 

OBJECT_NAME    = STARLINK-36769
OBJECT_ID      = 2026-034X
CENTER_NAME    = EARTH
REF_FRAME      = TEME
TIME_SYSTEM    = UTC
MEAN_ELEMENT_THEORY = SGP/SGP4

EPOCH          = 2026-03-20T12:39:06.299136
MEAN_MOTION    = 15.80930420
ECCENTRICITY   = .00013358
INCLINATION    = 53.1594
RA_OF_ASC_NODE = 156.8660
ARG_OF_PERICENTER = 97.7569
MEAN_ANOMALY   = 262.3606

EPHEMERIS_TYPE = 0
CLASSIFICATION_TYPE = U
NORAD_CAT_ID   = 67871
ELEMENT_SET_NO = 999
REV_AT_EPOCH   = 565
BSTAR          = .18551358E-2
MEAN_MOTION_DOT = .383178E-2
MEAN_MOTION_DDOT = 0

CCSDS_OMM_VERS = 2.0
CREATION_DATE  = 
ORIGINATOR     = 

OBJECT_NAME    = STARLINK-36786
OBJECT_ID      = 2026-034Y
CENTER_NAME    = EARTH
REF_FRAME      = TEME
TIME_SYSTEM    = UTC
MEAN_ELEMENT_THEORY = SGP/SGP4

EPOCH          = 2026-03-20T14:07:58.825056
MEAN_MOTION    = 15.80933133
ECCENTRICITY   = .00013659
INCLINATION    = 53.1576
RA_OF_ASC_NODE = 156.5391
ARG_OF_PERICENTER = 95.6286
MEAN_ANOMALY   = 264.4893

EPHEMERIS_TYPE = 0
CLASSIFICATION_TYPE = U
NORAD_CAT_ID   = 67872
ELEMENT_SET_NO = 999
REV_AT_EPOCH   = 566
BSTAR          = .96624435E-3
MEAN_MOTION_DOT = .194911E-2
MEAN_MOTION_DDOT = 0

CCSDS_OMM_VERS = 2.0
CREATION_DATE  = 
ORIGINATOR     = 

OBJECT_NAME    = STARLINK-36783
OBJECT_ID      = 2026-034Z
CENTER_NAME    = EARTH
REF_FRAME      = TEME
TIME_SYSTEM    = UTC
MEAN_ELEMENT_THEORY = SGP/SGP4

EPOCH          = 2026-03-20T14:06:54.152064
MEAN_MOTION    = 15.80940368
ECCENTRICITY   = .00014599
INCLINATION    = 53.1586
RA_OF_ASC_NODE = 156.5335
ARG_OF_PERICENTER = 60.1407
MEAN_ANOMALY   = 299.9760

EPHEMERIS_TYPE = 0
CLASSIFICATION_TYPE = U
NORAD_CAT_ID   = 67873
ELEMENT_SET_NO = 999
REV_AT_EPOCH   = 566
BSTAR          = .15651751E-2
MEAN_MOTION_DOT = .320969E-2
MEAN_MOTION_DDOT = 0

