STARLINK-36332          
1 67862U 26034N   26079.59637758  .00295211  00000+0  14434-2 0  9995
2 67862  53.1584 156.5906 0001743  87.3882 272.7341 15.80952237  5665
STARLINK-36835          
1 67863U 26034P   26079.40596821  .00283750  00000+0  13821-2 0  9995
2 67863  53.1589 157.5351 0001244 147.7280 212.3820 15.81065455  5632
STARLINK-36831          
1 67864U 26034Q   26079.40521610  .00300216  00000+0  14585-2 0  9995
2 67864  53.1584 157.5306 0001371 164.7882 195.3182 15.81077630  5635
STARLINK-36738          
1 67865U 26034R   26079.40446762  .00249122  00000+0  12201-2 0  9991
2 67865  53.1593 157.5251 0000955 138.7197 221.3898 15.81042745  5635
STARLINK-36780          
1 67866U 26034S   26079.40371828  .00301695  00000+0  14656-2 0  9992
2 67866  53.1594 157.5203 0001084 157.3763 202.7307 15.81074848  5631
STARLINK-36761          
1 67867U 26034T   26079.59262802  .00319058  00000+0  15582-2 0  9995
2 67867  53.1594 156.5644 0001590  71.6832 288.4364 15.80913483  5660
STARLINK-36762          
1 67868U 26034U   26079.40221912  .00355211  00000+0  17280-2 0  9991
2 67868  53.1588 157.5096 0000962  45.3818 314.7283 15.80900224  5639
STARLINK-36779          
1 67869U 26034V   26079.59112574  .00328734  00000+0  15992-2 0  9993
2 67869  53.1583 156.5540 0001572  77.3793 282.7405 15.80971611  5664
STARLINK-36770          
1 67870U 26034W   26079.58962913  .00291734  00000+0  14290-2 0  9993
2 67870  53.1589 156.5450 0002241  24.9473 335.1657 15.80921220  5662
STARLINK-36769          
1 67871U 26034X   26079.52715624  .00383178  00000+0  18551-2 0  9991
2 67871  53.1594 156.8660 0001335  97.7569 262.3606 15.80930420  5658
STARLINK-36786          
1 67872U 26034Y   26079.58887528  .00194911  00000+0  96624-3 0  9994
2 67872  53.1576 156.5391 0001366  95.6286 264.4893 15.80933133  5660
STARLINK-36783          
1 67873U 26034Z   26079.58812676  .00320969  00000+0  15652-2 0  9992
2 67873  53.1586 156.5335 0001460  60.1407 299.9760 15.80940368  5661
